0 GRUZOMAKET
1 28098U 03055A   13282.05634354  .00012339  00000-0  18377-3 0  8374
2 28098 067.0750 310.6742 0009701 262.2465 121.2104 15.55332999554614
0 GRUZOMAKET
1 28098U 03055A   13283.15130780  .00011289  00000-0  16831-3 0  8387
2 28098 067.0752 307.2431 0009683 261.6137 131.7444 15.55359239554788
0 GRUZOMAKET
1 28098U 03055A   13284.18150295  .00011397  00000-0  16976-3 0  8395
2 28098 067.0751 304.0146 0009672 261.1377 139.6161 15.55377621554940
0 GRUZOMAKET
1 28098U 03055A   13285.61419189  .00010630  00000-0  15844-3 0  8408
2 28098 067.0748 299.5246 0009618 260.9757 240.5970 15.55406451555163
0 GRUZOMAKET
1 28098U 03055A   13287.40881942  .00011749  00000-0  17449-3 0  8413
2 28098 067.0743 293.8998 0009541 260.4270 208.4675 15.55440217555443
0 GRUZOMAKET
1 28098U 03055A   13288.44598942  .00015295  00000-0  22572-3 0  8427
2 28098 067.0740 290.6489 0009503 259.9797 255.6862 15.55469580555609
0 GRUZOMAKET
1 28098U 03055A   13290.09679807  .00013675  00000-0  20194-3 0  8430
2 28098 067.0739 285.4737 0009458 259.0823 139.1234 15.55510323555864
0 GRUZOMAKET
1 28098U 03055A   13290.66867147  .00011719  00000-0  16988-3 0  8454
2 28098 067.0742 283.6836 0009501 257.5557 102.5066 15.55525883555958
0 GRUZOMAKET
1 28098U 03055A   13291.12717647  .00013124  00000-0  19378-3 0  8442
2 28098 067.0741 282.2433 0009413 258.4637 148.7419 15.55537163556023
0 GRUZOMAKET
1 28098U 03055A   13292.15728029  .00012535  00000-0  18510-3 0  8455
2 28098 067.0744 279.0139 0009406 257.8741 156.8898 15.55561274556182
0 GRUZOMAKET
1 28098U 03055A   13293.52261434  .00014161  00000-0  20834-3 0  8469
2 28098 067.0747 274.7335 0009352 257.3077 242.1118 15.55593885556392
0 GRUZOMAKET
1 28098U 03055A   13295.05309553  .00014692  00000-0  21572-3 0  8474
2 28098 067.0751 269.9355 0009294 256.5329 172.4157 15.55631610556635
